ONEWEB-0473             
1 51653U 22012AH  23059.56162485 -.00000513  00000+0 -15047-2 0  9992
2 51653  87.8763 275.6053 0001234  81.5571 278.5696 13.10374499 51545
ONEWEB-0473             
1 51653U 22012AH  23059.86705340 -.00000521  00000+0 -15277-2 0  9992
2 51653  87.8763 275.5442 0001237  81.6831 278.4436 13.10374928 52885
ONEWEB-0473             
1 51653U 22012AH  23060.70698351 -.00000559  00000+0 -16376-2 0  9992
2 51653  87.8763 275.3767 0001284  84.2050 275.9223 13.10374404 51690
ONEWEB-0473             
1 51653U 22012AH  23061.08877110 -.00000654  00000+0 -19113-2 0  9994
2 51653  87.8762 275.3005 0001273  84.5890 275.5383 13.10373288 53040
ONEWEB-0473             
1 51653U 22012AH  23061.62327278 -.00000461  00000+0 -13583-2 0  9990
2 51653  87.8761 275.1937 0001291  86.3041 273.8234 13.10372517 51812
ONEWEB-0473             
1 51653U 22012AH  23062.08141816 -.00000541  00000+0 -15859-2 0  9990
2 51653  87.8758 275.1020 0001283  85.9628 274.1645 13.10371695 51870
ONEWEB-0473             
1 51653U 22012AH  23062.61592072 -.00000592  00000+0 -17316-2 0  9999
2 51653  87.8758 274.9952 0001277  86.7286 273.3988 13.10371602 53245
ONEWEB-0473             
1 51653U 22012AH  23062.84499367 -.00000619  00000+0 -18104-2 0  9993
2 51653  87.8756 274.9493 0001270  84.9792 275.1480 13.10371248 51979
